GLOBALSTAR M024         
1 25883U 99043A   24160.24818522 -.00000128  00000+0 -22528-2 0  9999
2 25883  51.9975 144.3514 0001455 226.7308 146.3802 11.10156840 73369
GLOBALSTAR M027         
1 25884U 99043B   24159.86465927 -.00000046  00000+0  68528-3 0  9992
2 25884  52.0187 212.5969 0021290 107.9885 252.3231 11.04368809 99880
GLOBALSTAR M054         
1 25885U 99043C   24160.19555439 -.00000066  00000+0  13168-3 0  9991
2 25885  52.0166  41.9178 0004201 263.1243 277.5436 11.39203319 76759
GLOBALSTAR M053         
1 25886U 99043D   24159.72538334 -.00000060  00000+0  26524-3 0  9998
2 25886  52.0006 329.3662 0003956 156.2433 216.2906 11.27655658 77200
GLOBALSTAR M058         
1 25907U 99049A   24160.01961793  .00000007  00000+0  12240-2 0  9990
2 25907  51.9967  28.2833 0001690 288.9661  71.0990 11.93182175108085
GLOBALSTAR M050         
1 25908U 99049B   24160.23326596  .00000006  00000+0  10669-2 0  9993
2 25908  52.0004  63.3256 0009603   9.5738 164.1181 12.07434752107748
GLOBALSTAR M033         
1 25909U 99049C   24159.85799083 -.00000089  00000+0  25651-4 0  9996
2 25909  51.9930 322.0475 0011904 214.1081 145.9002 12.20273548490041
